STARLINK-35322          
1 66332U 25253P   25332.83336806 -.00037823  00000+0 -64193-3 0  9999
2 66332  42.9997  66.0183 0001066 269.0440 122.5279 15.50583553  4691
STARLINK-35400          
1 66333U 25253Q   25332.83336806 -.00055796  00000+0 -95155-3 0  9991
2 66333  42.9995  65.9987 0001023 268.5400 130.6972 15.50594503  4690
STARLINK-35407          
1 66334U 25253R   25332.83336806 -.00067297  00000+0 -11504-2 0  9996
2 66334  42.9996  66.0149 0001683 266.4480 127.0396 15.50597509  4690
STARLINK-35417          
1 66335U 25253S   25332.83336806 -.02046834  00000+0 -44008-1 0  9997
2 66335  42.9997  65.9866 0001530 275.7045 128.8002 15.47295992  4697
STARLINK-35404          
1 66336U 25253T   25332.83336806 -.00039440  00000+0 -66971-3 0  9996
2 66336  42.9994  65.9899 0001554 271.3983 131.6787 15.50583634  4790
STARLINK-34783          
1 66337U 25253U   25332.83336806 -.02071448  00000+0 -40209-1 0  9997
2 66337  42.9993  65.9704 0001426 278.9920 131.6730 15.50220543  4747
STARLINK-35477          
1 66338U 25253V   25332.83336806 -.02052032  00000+0 -46231-1 0  9997
2 66338  42.9990  66.0024 0001443 283.6394 114.7358 15.45967475  4798
STARLINK-35443          
1 66339U 25253W   25332.83336806 -.00057574  00000+0 -98226-3 0  9995
2 66339  42.9995  65.9556 0001673 277.0564 139.4368 15.50593015  4744
STARLINK-35218          
1 66340U 25253X   25332.83336806  .00095359  00000+0  16169-2 0  9993
2 66340  42.9995  65.9857 0001471 272.5976 132.4759 15.50485418  4792
STARLINK-35522          
1 66341U 25253Y   25332.83336806 -.00040514  00000+0 -68817-3 0  9997
2 66341  42.9996  66.0063 0001009 267.2916 130.0243 15.50587075  4791
STARLINK-35535          
1 66342U 25253Z   25332.83336806 -.00059452  00000+0 -10146-2 0  9990
2 66342  42.9995  65.9605 0001559 273.6197 140.9529 15.50596812  4698
STARLINK-35467          
1 66343U 25253AA  25332.83336806  .00022879  00000+0  39474-3 0  9998
2 66343  42.9996  65.9645 0001457 275.6567 136.9990 15.50573477  4693
