CCSDS_OMM_VERS = 2.0
CREATION_DATE  = 
ORIGINATOR     = 

OBJECT_NAME    = STARLINK-35322
OBJECT_ID      = 2025-253P
CENTER_NAME    = EARTH
REF_FRAME      = TEME
TIME_SYSTEM    = UTC
MEAN_ELEMENT_THEORY = SGP/SGP4

EPOCH          = 2025-11-28T20:00:03.000384
MEAN_MOTION    = 15.50583553
ECCENTRICITY   = .0001066
INCLINATION    = 42.9997
RA_OF_ASC_NODE = 66.0183
ARG_OF_PERICENTER = 269.0440
MEAN_ANOMALY   = 122.5279

EPHEMERIS_TYPE = 0
CLASSIFICATION_TYPE = U
NORAD_CAT_ID   = 66332
ELEMENT_SET_NO = 999
REV_AT_EPOCH   = 469
BSTAR          = -.64193E-3
MEAN_MOTION_DOT = -.37823E-3
MEAN_MOTION_DDOT = 0

CCSDS_OMM_VERS = 2.0
CREATION_DATE  = 
ORIGINATOR     = 

OBJECT_NAME    = STARLINK-35400
OBJECT_ID      = 2025-253Q
CENTER_NAME    = EARTH
REF_FRAME      = TEME
TIME_SYSTEM    = UTC
MEAN_ELEMENT_THEORY = SGP/SGP4

EPOCH          = 2025-11-28T20:00:03.000384
MEAN_MOTION    = 15.50594503
ECCENTRICITY   = .0001023
INCLINATION    = 42.9995
RA_OF_ASC_NODE = 65.9987
ARG_OF_PERICENTER = 268.5400
MEAN_ANOMALY   = 130.6972

EPHEMERIS_TYPE = 0
CLASSIFICATION_TYPE = U
NORAD_CAT_ID   = 66333
ELEMENT_SET_NO = 999
REV_AT_EPOCH   = 469
BSTAR          = -.95155E-3
MEAN_MOTION_DOT = -.55796E-3
MEAN_MOTION_DDOT = 0

CCSDS_OMM_VERS = 2.0
CREATION_DATE  = 
ORIGINATOR     = 

OBJECT_NAME    = STARLINK-35407
OBJECT_ID      = 2025-253R
CENTER_NAME    = EARTH
REF_FRAME      = TEME
TIME_SYSTEM    = UTC
MEAN_ELEMENT_THEORY = SGP/SGP4

EPOCH          = 2025-11-28T20:00:03.000384
MEAN_MOTION    = 15.50597509
ECCENTRICITY   = .0001683
INCLINATION    = 42.9996
RA_OF_ASC_NODE = 66.0149
ARG_OF_PERICENTER = 266.4480
MEAN_ANOMALY   = 127.0396

EPHEMERIS_TYPE = 0
CLASSIFICATION_TYPE = U
NORAD_CAT_ID   = 66334
ELEMENT_SET_NO = 999
REV_AT_EPOCH   = 469
BSTAR          = -.11504E-2
MEAN_MOTION_DOT = -.67297E-3
MEAN_MOTION_DDOT = 0

CCSDS_OMM_VERS = 2.0
CREATION_DATE  = 
ORIGINATOR     = 

OBJECT_NAME    = STARLINK-35417
OBJECT_ID      = 2025-253S
CENTER_NAME    = EARTH
REF_FRAME      = TEME
TIME_SYSTEM    = UTC
MEAN_ELEMENT_THEORY = SGP/SGP4

EPOCH          = 2025-11-28T20:00:03.000384
MEAN_MOTION    = 15.47295992
ECCENTRICITY   = .000153
INCLINATION    = 42.9997
RA_OF_ASC_NODE = 65.9866
ARG_OF_PERICENTER = 275.7045
MEAN_ANOMALY   = 128.8002

EPHEMERIS_TYPE = 0
CLASSIFICATION_TYPE = U
NORAD_CAT_ID   = 66335
ELEMENT_SET_NO = 999
REV_AT_EPOCH   = 469
BSTAR          = -.44008E-1
MEAN_MOTION_DOT = -.2046834E-1
MEAN_MOTION_DDOT = 0

CCSDS_OMM_VERS = 2.0
CREATION_DATE  = 
ORIGINATOR     = 

OBJECT_NAME    = STARLINK-35404
OBJECT_ID      = 2025-253T
CENTER_NAME    = EARTH
REF_FRAME      = TEME
TIME_SYSTEM    = UTC
MEAN_ELEMENT_THEORY = SGP/SGP4

EPOCH          = 2025-11-28T20:00:03.000384
MEAN_MOTION    = 15.50583634
ECCENTRICITY   = .0001554
INCLINATION    = 42.9994
RA_OF_ASC_NODE = 65.9899
ARG_OF_PERICENTER = 271.3983
MEAN_ANOMALY   = 131.6787

EPHEMERIS_TYPE = 0
CLASSIFICATION_TYPE = U
NORAD_CAT_ID   = 66336
ELEMENT_SET_NO = 999
REV_AT_EPOCH   = 479
BSTAR          = -.66971E-3
MEAN_MOTION_DOT = -.3944E-3
MEAN_MOTION_DDOT = 0

CCSDS_OMM_VERS = 2.0
CREATION_DATE  = 
ORIGINATOR     = 

OBJECT_NAME    = STARLINK-34783
OBJECT_ID      = 2025-253U
CENTER_NAME    = EARTH
REF_FRAME      = TEME
TIME_SYSTEM    = UTC
MEAN_ELEMENT_THEORY = SGP/SGP4

EPOCH          = 2025-11-28T20:00:03.000384
MEAN_MOTION    = 15.50220543
ECCENTRICITY   = .0001426
INCLINATION    = 42.9993
RA_OF_ASC_NODE = 65.9704
ARG_OF_PERICENTER = 278.9920
MEAN_ANOMALY   = 131.6730

EPHEMERIS_TYPE = 0
CLASSIFICATION_TYPE = U
NORAD_CAT_ID   = 66337
ELEMENT_SET_NO = 999
REV_AT_EPOCH   = 474
BSTAR          = -.40209E-1
MEAN_MOTION_DOT = -.2071448E-1
MEAN_MOTION_DDOT = 0

CCSDS_OMM_VERS = 2.0
CREATION_DATE  = 
ORIGINATOR     = 

OBJECT_NAME    = STARLINK-35477
OBJECT_ID      = 2025-253V
CENTER_NAME    = EARTH
REF_FRAME      = TEME
TIME_SYSTEM    = UTC
MEAN_ELEMENT_THEORY = SGP/SGP4

EPOCH          = 2025-11-28T20:00:03.000384
MEAN_MOTION    = 15.45967475
ECCENTRICITY   = .0001443
INCLINATION    = 42.9990
RA_OF_ASC_NODE = 66.0024
ARG_OF_PERICENTER = 283.6394
MEAN_ANOMALY   = 114.7358

EPHEMERIS_TYPE = 0
CLASSIFICATION_TYPE = U
NORAD_CAT_ID   = 66338
ELEMENT_SET_NO = 999
REV_AT_EPOCH   = 479
BSTAR          = -.46231E-1
MEAN_MOTION_DOT = -.2052032E-1
MEAN_MOTION_DDOT = 0

CCSDS_OMM_VERS = 2.0
CREATION_DATE  = 
ORIGINATOR     = 

OBJECT_NAME    = STARLINK-35443
OBJECT_ID      = 2025-253W
CENTER_NAME    = EARTH
REF_FRAME      = TEME
TIME_SYSTEM    = UTC
MEAN_ELEMENT_THEORY = SGP/SGP4

EPOCH          = 2025-11-28T20:00:03.000384
MEAN_MOTION    = 15.50593015
ECCENTRICITY   = .0001673
INCLINATION    = 42.9995
RA_OF_ASC_NODE = 65.9556
ARG_OF_PERICENTER = 277.0564
MEAN_ANOMALY   = 139.4368

EPHEMERIS_TYPE = 0
CLASSIFICATION_TYPE = U
NORAD_CAT_ID   = 66339
ELEMENT_SET_NO = 999
REV_AT_EPOCH   = 474
BSTAR          = -.98226E-3
MEAN_MOTION_DOT = -.57574E-3
MEAN_MOTION_DDOT = 0

CCSDS_OMM_VERS = 2.0
CREATION_DATE  = 
ORIGINATOR     = 

OBJECT_NAME    = STARLINK-35218
OBJECT_ID      = 2025-253X
CENTER_NAME    = EARTH
REF_FRAME      = TEME
TIME_SYSTEM    = UTC
MEAN_ELEMENT_THEORY = SGP/SGP4

EPOCH          = 2025-11-28T20:00:03.000384
MEAN_MOTION    = 15.50485418
ECCENTRICITY   = .0001471
INCLINATION    = 42.9995
RA_OF_ASC_NODE = 65.9857
ARG_OF_PERICENTER = 272.5976
MEAN_ANOMALY   = 132.4759

EPHEMERIS_TYPE = 0
CLASSIFICATION_TYPE = U
NORAD_CAT_ID   = 66340
ELEMENT_SET_NO = 999
REV_AT_EPOCH   = 479
BSTAR          = .16169E-2
MEAN_MOTION_DOT = .95359E-3
MEAN_MOTION_DDOT = 0

CCSDS_OMM_VERS = 2.0
CREATION_DATE  = 
ORIGINATOR     = 

OBJECT_NAME    = STARLINK-35522
OBJECT_ID      = 2025-253Y
CENTER_NAME    = EARTH
REF_FRAME      = TEME
TIME_SYSTEM    = UTC
MEAN_ELEMENT_THEORY = SGP/SGP4

EPOCH          = 2025-11-28T20:00:03.000384
MEAN_MOTION    = 15.50587075
ECCENTRICITY   = .0001009
INCLINATION    = 42.9996
RA_OF_ASC_NODE = 66.0063
ARG_OF_PERICENTER = 267.2916
MEAN_ANOMALY   = 130.0243

EPHEMERIS_TYPE = 0
CLASSIFICATION_TYPE = U
NORAD_CAT_ID   = 66341
ELEMENT_SET_NO = 999
REV_AT_EPOCH   = 479
BSTAR          = -.68817E-3
MEAN_MOTION_DOT = -.40514E-3
MEAN_MOTION_DDOT = 0

CCSDS_OMM_VERS = 2.0
CREATION_DATE  = 
ORIGINATOR     = 

OBJECT_NAME    = STARLINK-35535
OBJECT_ID      = 2025-253Z
CENTER_NAME    = EARTH
REF_FRAME      = TEME
TIME_SYSTEM    = UTC
MEAN_ELEMENT_THEORY = SGP/SGP4

EPOCH          = 2025-11-28T20:00:03.000384
MEAN_MOTION    = 15.50596812
ECCENTRICITY   = .0001559
INCLINATION    = 42.9995
RA_OF_ASC_NODE = 65.9605
ARG_OF_PERICENTER = 273.6197
MEAN_ANOMALY   = 140.9529

EPHEMERIS_TYPE = 0
CLASSIFICATION_TYPE = U
NORAD_CAT_ID   = 66342
ELEMENT_SET_NO = 999
REV_AT_EPOCH   = 469
BSTAR          = -.10146E-2
MEAN_MOTION_DOT = -.59452E-3
MEAN_MOTION_DDOT = 0

CCSDS_OMM_VERS = 2.0
CREATION_DATE  = 
ORIGINATOR     = 

OBJECT_NAME    = STARLINK-35467
OBJECT_ID      = 2025-253AA
CENTER_NAME    = EARTH
REF_FRAME      = TEME
TIME_SYSTEM    = UTC
MEAN_ELEMENT_THEORY = SGP/SGP4

EPOCH          = 2025-11-28T20:00:03.000384
MEAN_MOTION    = 15.50573477
ECCENTRICITY   = .0001457
INCLINATION    = 42.9996
RA_OF_ASC_NODE = 65.9645
ARG_OF_PERICENTER = 275.6567
MEAN_ANOMALY   = 136.9990

EPHEMERIS_TYPE = 0
CLASSIFICATION_TYPE = U
NORAD_CAT_ID   = 66343
ELEMENT_SET_NO = 999
REV_AT_EPOCH   = 469
BSTAR          = .39474E-3
MEAN_MOTION_DOT = .22879E-3
MEAN_MOTION_DDOT = 0

